$$SOE
2460721.500000000, A.D. 2025-Feb-15 00:00:00.0000, 3.312279648243676E+08, 1.541879994334432E+08, 2.566528713556232E+07,
2460728.500000000, A.D. 2025-Feb-22 00:00:00.0000, 3.251597846607522E+08, 1.645462627725375E+08, 2.549047344223768E+07,
2460735.500000000, A.D. 2025-Mar-01 00:00:00.0000, 3.187678363269868E+08, 1.747407015780675E+08, 2.529027515960824E+07,
2460742.500000000, A.D. 2025-Mar-08 00:00:00.0000, 3.120560908080366E+08, 1.847598564126733E+08, 2.506470120882782E+07,
2460749.500000000, A.D. 2025-Mar-15 00:00:00.0000, 3.050289951660223E+08, 1.945923267394518E+08, 2.481379365300877E+07,
2460756.500000000, A.D. 2025-Mar-22 00:00:00.0000, 2.976914740839231E+08, 2.042267952890576E+08, 2.453762873129806E+07,
2460763.500000000, A.D. 2025-Mar-29 00:00:00.0000, 2.900489313668193E+08, 2.136520508441514E+08, 2.423631750512214E+07,
2460770.500000000, A.D. 2025-Apr-05 00:00:00.0000, 2.821072516443373E+08, 2.228570124807478E+08, 2.391000633452687E+07,
2460777.500000000, A.D. 2025-Apr-12 00:00:00.0000, 2.738728002712900E+08, 2.318307552653333E+08, 2.355887736183906E+07,
2460784.500000000, A.D. 2025-Apr-19 00:00:00.0000, 2.653524211728113E+08, 2.405625364135936E+08, 2.318314894067839E+07,
2460791.500000000, A.D. 2025-Apr-26 00:00:00.0000, 2.565534328489836E+08, 2.490418215860284E+08, 2.278307596209456E+07,
2460798.500000000, A.D. 2025-May-03 00:00:00.0000, 2.474836226060503E+08, 2.572583112099158E+08, 2.235895006273465E+07,
2460805.500000000, A.D. 2025-May-10 00:00:00.0000, 2.381512390072880E+08, 2.652019666996561E+08, 2.191109970751795E+07,
2460812.500000000, A.D. 2025-May-17 00:00:00.0000, 2.285649825568331E+08, 2.728630363922067E+08, 2.143989013525194E+07,
2460819.500000000, A.D. 2025-May-24 00:00:00.0000, 2.187339947801573E+08, 2.802320809970021E+08, 2.094572314286515E+07,
2460826.500000000, A.D. 2025-May-31 00:00:00.0000, 2.086678461239634E+08, 2.872999987229243E+08, 2.042903669237633E+07,
2460833.500000000, A.D. 2025-Jun-07 00:00:00.0000, 1.983765222951119E+08, 2.940580511338488E+08, 1.989030447317947E+07,
2460840.500000000, A.D. 2025-Jun-14 00:00:00.0000, 1.878704067025210E+08, 3.004978889076030E+08, 1.933003557998106E+07,
2460847.500000000, A.D. 2025-Jun-21 00:00:00.0000, 1.771602602611502E+08, 3.066115740804998E+08, 1.874877392830141E+07,
2460854.500000000, A.D. 2025-Jun-28 00:00:00.0000, 1.662572017546639E+08, 3.123916004014043E+08, 1.814709726641379E+07,
2460861.500000000, A.D. 2025-Jul-05 00:00:00.0000, 1.551726873191948E+08, 3.178309138061736E+08, 1.752561610034424E+07,
2460868.500000000, A.D. 2025-Jul-12 00:00:00.0000, 1.439184879459323E+08, 3.229229320691599E+08, 1.688497257828239E+07,
2460875.500000000, A.D. 2025-Jul-19 00:00:00.0000, 1.325066652956522E+08, 3.276615629297000E+08, 1.622583927441730E+07,
2460882.500000000, A.D. 2025-Jul-26 00:00:00.0000, 1.209495461522078E+08, 3.320412205202870E+08, 1.554891785379179E+07,
2460889.500000000, A.D. 2025-Aug-02 00:00:00.0000, 1.092596957092317E+08, 3.360568400127698E+08, 1.485493762044165E+07,
2460896.500000000, A.D. 2025-Aug-09 00:00:00.0000, 9.744988985295956E+07, 3.397038903755627E+08, 1.414465395296128E+07,
2460903.500000000, A.D. 2025-Aug-16 00:00:00.0000, 8.553308666719186E+07, 3.429783851001102E+08, 1.341884662360375E+07,
2460910.500000000, A.D. 2025-Aug-23 00:00:00.0000, 7.352239761037216E+07, 3.458768908488224E+08, 1.267831798442237E+07,
2460917.500000000, A.D. 2025-Aug-30 00:00:00.0000, 6.143105885806207E+07, 3.483965346889447E+08, 1.192389105801216E+07,
2460924.500000000, A.D. 2025-Sep-06 00:00:00.0000, 4.927240156309668E+07, 3.505350108745226E+08, 1.115640775397290E+07,
2460931.500000000, A.D. 2025-Sep-13 00:00:00.0000, 3.705981952940139E+07, 3.522905846603867E+08, 1.037672717150219E+07,
2460938.500000000, A.D. 2025-Sep-20 00:00:00.0000, 2.480673772771621E+07, 3.536620914960229E+08, 9.585723566178083E+06,
2460945.500000000, A.D. 2025-Sep-27 00:00:00.0000, 1.252658287274497E+07, 3.546489347377787E+08, 8.784284151155278E+06,
2460952.500000000, A.D. 2025-Oct-04 00:00:00.0000, 2.327542102800068E+05, 3.552510824574656E+08, 7.973306974094778E+06,
2460959.500000000, A.D. 2025-Oct-11 00:00:00.0000, -1.206140569879727E+07, 3.554690624550952E+08, 7.153698839050233E+06,
2460966.500000000, A.D. 2025-Oct-18 00:00:00.0000, -2.434263975899800E+07, 3.553039552651781E+08, 6.326373236242622E+06,
2460973.500000000, A.D. 2025-Oct-25 00:00:00.0000, -3.659780439918927E+07, 3.547573852424633E+08, 5.492248278659731E+06,
2460980.500000000, A.D. 2025-Nov-01 00:00:00.0000, -4.881389673494522E+07, 3.538315098285722E+08, 4.652244653649405E+06,
2460987.500000000, A.D. 2025-Nov-08 00:00:00.0000, -6.097808067565445E+07, 3.525290070652717E+08, 3.807283593992501E+06,
2460994.500000000, A.D. 2025-Nov-15 00:00:00.0000, -7.307771171641533E+07, 3.508530614032533E+08, 2.958284859922364E+06,
2461001.500000000, A.D. 2025-Nov-22 00:00:00.0000, -8.510035991270000E+07, 3.488073481430029E+08, 2.106164722438514E+06,
2461008.500000000, A.D. 2025-Nov-29 00:00:00.0000, -9.703383110525627E+07, 3.463960177685129E+08, 1.251834063231751E+06,
2461015.500000000, A.D. 2025-Dec-06 00:00:00.0000, -1.088661885974519E+08, 3.436236801713883E+08, 3.961967963110358E+05,
2461022.500000000, A.D. 2025-Dec-13 00:00:00.0000, -1.205857747854945E+08, 3.404953855242541E+08, -4.598516968602389E+05,
2461029.500000000, A.D. 2025-Dec-20 00:00:00.0000, -1.321812292038012E+08, 3.370166029560068E+08, -1.315426348438740E+06,
2461036.500000000, A.D. 2025-Dec-27 00:00:00.0000, -1.436415040287985E+08, 3.331931997630555E+08, -2.169654086187795E+06,
2461043.500000000, A.D. 2026-Jan-03 00:00:00.0000, -1.549558784752883E+08, 3.290314206802733E+08, -3.021675328881025E+06,
2461050.500000000, A.D. 2026-Jan-10 00:00:00.0000, -1.661139719631441E+08, 3.245378666643397E+08, -3.870645356961742E+06,
2461057.500000000, A.D. 2026-Jan-17 00:00:00.0000, -1.771057558224724E+08, 3.197194732258753E+08, -4.715735584290579E+06,
2461064.500000000, A.D. 2026-Jan-24 00:00:00.0000, -1.879215634716640E+08, 3.145834884564077E+08, -5.556134734096467E+06,
2461071.500000000, A.D. 2026-Jan-31 00:00:00.0000, -1.985520990687492E+08, 3.091374508604811E+08, -6.391049920445159E+06,
2461078.500000000, A.D. 2026-Feb-07 00:00:00.0000, -2.089884446095303E+08, 3.033891670476931E+08, -7.219707644841373E+06,
2461085.500000000, A.D. 2026-Feb-14 00:00:00.0000, -2.192220652642489E+08, 2.973466893761863E+08, -8.041354732494101E+06,
2461092.500000000, A.D. 2026-Feb-21 00:00:00.0000, -2.292448126182148E+08, 2.910182942257580E+08, -8.855259197506651E+06,
2461099.500000000, A.D. 2026-Feb-28 00:00:00.0000, -2.390489269616130E+08, 2.844124621497598E+08, -9.660710845118478E+06,
2461106.500000000, A.D. 2026-Mar-07 00:00:00.0000, -2.486270407511304E+08, 2.775378580465407E+08, -1.045702158453797E+07,
2461113.500000000, A.D. 2026-Mar-14 00:00:00.0000, -2.579721805290091E+08, 2.704033090953160E+08, -1.124352590018566E+07,
2461120.500000000, A.D. 2026-Mar-21 00:00:00.0000, -2.670777655846031E+08, 2.630177834166704E+08, -1.201958141029584E+07,
2461127.500000000, A.D. 2026-Mar-28 00:00:00.0000, -2.759376054452121E+08, 2.553903705468143E+08, -1.278456924848758E+07,
2461134.500000000, A.D. 2026-Apr-04 00:00:00.0000, -2.845458968751633E+08, 2.475302628146353E+08, -1.353789429618317E+07,
2461141.500000000, A.D. 2026-Apr-11 00:00:00.0000, -2.928972201835387E+08, 2.394467373048405E+08, -1.427898532430738E+07,
2461148.500000000, A.D. 2026-Apr-18 00:00:00.0000, -3.009865347571362E+08, 2.311491384353073E+08, -1.500729506344572E+07,
2461155.500000000, A.D. 2026-Apr-25 00:00:00.0000, -3.088091738491769E+08, 2.226468611916233E+08, -1.572230020977277E+07,
2461162.500000000, A.D. 2026-May-02 00:00:00.0000, -3.163608386686426E+08, 2.139493350113887E+08, -1.642350137652140E+07,
2461169.500000000, A.D. 2026-May-09 00:00:00.0000, -3.236375917194358E+08, 2.050660082685445E+08, -1.711042301250458E+07,
2461176.500000000, A.D. 2026-May-16 00:00:00.0000, -3.306358490821911E+08, 1.960063335070465E+08, -1.778261331569987E+07,
2461183.500000000, A.D. 2026-May-23 00:00:00.0000, -3.373523716537937E+08, 1.867797544513608E+08, -1.843964406751891E+07,
2461190.500000000, A.D. 2026-May-30 00:00:00.0000, -3.437842574871342E+08, 1.773956951125359E+08, -1.908111017526901E+07,
2461197.500000000, A.D. 2026-Jun-06 00:00:00.0000, -3.499289356097670E+08, 1.678635477112533E+08, -1.970662916536991E+07,
2461204.500000000, A.D. 2026-Jun-13 00:00:00.0000, -3.557841577101900E+08, 1.581926596051168E+08, -2.031584095040452E+07,
2461211.500000000, A.D. 2026-Jun-20 00:00:00.0000, -3.613479882475345E+08, 1.483923221261572E+08, -2.090840758803336E+07,
2461218.500000000, A.D. 2026-Jun-27 00:00:00.0000, -3.666187947436312E+08, 1.384717609698746E+08, -2.148401290886984E+07,
2461225.500000000, A.D. 2026-Jul-04 00:00:00.0000, -3.715952383140193E+08, 1.284401273460249E+08, -2.204236208217888E+07,
2461232.500000000, A.D. 2026-Jul-11 00:00:00.0000, -3.762762642316663E+08, 1.183064897423069E+08, -2.258318115801913E+07,
2461239.500000000, A.D. 2026-Jul-18 00:00:00.0000, -3.806610924722257E+08, 1.080798263056653E+08, -2.310621659595018E+07,
2461246.500000000, A.D. 2026-Jul-25 00:00:00.0000, -3.847492082539136E+08, 9.776901781968713E+07, -2.361123478555275E+07,
2461253.500000000, A.D. 2026-Aug-01 00:00:00.0000, -3.885403525582865E+08, 8.738284120362666E+07, -2.409802157003250E+07,
2461260.500000000, A.D. 2026-Aug-08 00:00:00.0000, -3.920345124484869E+08, 7.692996346962339E+07, -2.456638179824101E+07,
2461267.500000000, A.D. 2026-Aug-15 00:00:00.0000, -3.952319107982793E+08, 6.641893656021423E+07, -2.501613890882622E+07,
2461274.500000000, A.D. 2026-Aug-22 00:00:00.0000, -3.981329962184477E+08, 5.585819425834961E+07, -2.544713437917196E+07,
2461281.500000000, A.D. 2026-Aug-29 00:00:00.0000, -4.007384354942279E+08, 4.525604976770948E+07, -2.585922694381502E+07,
2461288.500000000, A.D. 2026-Sep-05 00:00:00.0000, -4.030491064235927E+08, 3.462069106773403E+07, -2.625229201494802E+07,
$$EOE